{"fetched_at":"2026-03-30T06:02:59Z","count":15439,"tles":[{"name":"STARLINK-2614","line1":"1 48380U 21038AD  26087.74497397  .00007411  00000+0  26197-3 0  9990","line2":"2 48380  53.1583 257.0808 0001084  79.3931 280.7191 15.30213884270175","category":"Starlink"}]}